ONEWEB-0375             
1 49301U 21090Y   25279.16316147 -.00000122  00000+0 -33098-3 0  9995
2 49301  87.9223 325.0948 0002024  79.1176 281.0185 13.20772542196992
ONEWEB-0376             
1 49302U 21090Z   25279.20202917  .00000062  00000+0  12220-3 0  9995
2 49302  87.9284 355.4691 0001757 107.0066 253.1260 13.19726237192957
ONEWEB-0377             
1 49303U 21090AA  25279.14908811  .00000189  00000+0  43252-3 0  9994
2 49303  87.9239 325.0941 0002148  94.8342 265.3036 13.20773690196984
ONEWEB-0378             
1 49304U 21090AB  25279.17118352  .00000080  00000+0  16412-3 0  9999
2 49304  87.9246 325.1038 0001881  91.7727 268.3622 13.20770145196253
ONEWEB-0379             
1 49305U 21090AC  25279.18503650  .00000015  00000+0  49433-5 0  9999
2 49305  87.9062 340.2957 0001746  97.8370 262.2958 13.14503031194196
ONEWEB-0380             
1 49306U 21090AD  25279.19885359  .00000054  00000+0  10152-3 0  9997
2 49306  87.9277 355.4959 0001997  95.6850 264.4511 13.19727710192927
ONEWEB-0381             
1 49307U 21090AE  25279.14581052  .00000067  00000+0  13223-3 0  9992
2 49307  87.9232 325.1016 0001943  88.3629 271.7726 13.20772469196297
ONEWEB-0382             
1 49308U 21090AF  25279.20892108  .00000061  00000+0  11801-3 0  9991
2 49308  87.9236 325.0804 0001790  87.5301 272.6038 13.20773128196293
ONEWEB-0383             
1 49309U 21090AG  25279.10260425 -.00002047  00000+0 -55595-2 0  9997
2 49309  87.9067 340.2944 0001548  95.0813 265.0493 13.14482100194214
ONEWEB-0384             
1 49310U 21090AH  25279.20363250 -.00000063  00000+0 -18697-3 0  9999
2 49310  87.9257 325.1100 0001619  82.3486 277.7832 13.20793230196302
ONEWEB-0385             
1 49311U 21090AJ  25279.20105019 -.00000054  00000+0 -16555-3 0  9998
2 49311  87.9234 325.0926 0001792  92.0589 268.0750 13.20771303196272
ONEWEB-0386             
1 49312U 21090AK  25279.14263208  .00000147  00000+0  32877-3 0  9993
2 49312  87.9244 325.0821 0001739  89.7349 270.3984 13.20774127196289
ONEWEB-0387             
1 49313U 21090AL  25279.05109639  .00000013  00000+0  14400-6 0  9998
2 49313  87.9236 325.1518 0002071  89.2016 270.9355 13.20773047196278
ONEWEB-0388             
1 49314U 21090AM  25279.19413535  .00000059  00000+0  11503-3 0  9995
2 49314  87.9274 355.5029 0001806  96.2529 263.8810 13.19726766192915
ONEWEB-0389             
1 50469U 21132A   25278.43286610 -.00000002  00000+0 -38043-4 0  9992
2 50469  87.9088  56.5323 0001789  84.6411 275.4925 13.17647507184535
ONEWEB-0390             
1 50470U 21132B   25278.43454793  .00000092  00000+0  20309-3 0  9995
2 50470  87.9085  56.5380 0001951  99.9672 260.1679 13.17650750184537
ONEWEB-0391             
1 50471U 21132C   25279.11967972  .00000018  00000+0  12638-4 0  9995
2 50471  87.9083  56.4130 0002330  79.4968 280.6426 13.17648470184624
