[{"OBJECT_NAME":"ONEWEB-0375","OBJECT_ID":"2021-090Y","EPOCH":"2025-10-06T03:54:57.151008","MEAN_MOTION":13.20772542,"ECCENTRICITY":0.0002024,"INCLINATION":87.9223,"RA_OF_ASC_NODE":325.0948,"ARG_OF_PERICENTER":79.1176,"MEAN_ANOMALY":281.0185,"EPHEMERIS_TYPE":0,"CLASSIFICATION_TYPE":"U","NORAD_CAT_ID":49301,"ELEMENT_SET_NO":999,"REV_AT_EPOCH":19699,"BSTAR":-0.00033098,"MEAN_MOTION_DOT":-1.22e-6,"MEAN_MOTION_DDOT":0},{"OBJECT_NAME":"ONEWEB-0376","OBJECT_ID":"2021-090Z","EPOCH":"2025-10-06T04:50:55.320288","MEAN_MOTION":13.19726237,"ECCENTRICITY":0.0001757,"INCLINATION":87.9284,"RA_OF_ASC_NODE":355.4691,"ARG_OF_PERICENTER":107.0066,"MEAN_ANOMALY":253.126,"EPHEMERIS_TYPE":0,"CLASSIFICATION_TYPE":"U","NORAD_CAT_ID":49302,"ELEMENT_SET_NO":999,"REV_AT_EPOCH":19295,"BSTAR":0.0001222,"MEAN_MOTION_DOT":6.2e-7,"MEAN_MOTION_DDOT":0},{"OBJECT_NAME":"ONEWEB-0377","OBJECT_ID":"2021-090AA","EPOCH":"2025-10-06T03:34:41.212704","MEAN_MOTION":13.2077369,"ECCENTRICITY":0.0002148,"INCLINATION":87.9239,"RA_OF_ASC_NODE":325.0941,"ARG_OF_PERICENTER":94.8342,"MEAN_ANOMALY":265.3036,"EPHEMERIS_TYPE":0,"CLASSIFICATION_TYPE":"U","NORAD_CAT_ID":49303,"ELEMENT_SET_NO":999,"REV_AT_EPOCH":19698,"BSTAR":0.00043252,"MEAN_MOTION_DOT":1.89e-6,"MEAN_MOTION_DDOT":0},{"OBJECT_NAME":"ONEWEB-0378","OBJECT_ID":"2021-090AB","EPOCH":"2025-10-06T04:06:30.256128","MEAN_MOTION":13.20770145,"ECCENTRICITY":0.0001881,"INCLINATION":87.9246,"RA_OF_ASC_NODE":325.1038,"ARG_OF_PERICENTER":91.7727,"MEAN_ANOMALY":268.3622,"EPHEMERIS_TYPE":0,"CLASSIFICATION_TYPE":"U","NORAD_CAT_ID":49304,"ELEMENT_SET_NO":999,"REV_AT_EPOCH":19625,"BSTAR":0.00016412,"MEAN_MOTION_DOT":8.0e-7,"MEAN_MOTION_DDOT":0},{"OBJECT_NAME":"ONEWEB-0379","OBJECT_ID":"2021-090AC","EPOCH":"2025-10-06T04:26:27.153600","MEAN_MOTION":13.14503031,"ECCENTRICITY":0.0001746,"INCLINATION":87.9062,"RA_OF_ASC_NODE":340.2957,"ARG_OF_PERICENTER":97.837,"MEAN_ANOMALY":262.2958,"EPHEMERIS_TYPE":0,"CLASSIFICATION_TYPE":"U","NORAD_CAT_ID":49305,"ELEMENT_SET_NO":999,"REV_AT_EPOCH":19419,"BSTAR":4.9433e-6,"MEAN_MOTION_DOT":1.5e-7,"MEAN_MOTION_DDOT":0},{"OBJECT_NAME":"ONEWEB-0380","OBJECT_ID":"2021-090AD","EPOCH":"2025-10-06T04:46:20.950176","MEAN_MOTION":13.1972771,"ECCENTRICITY":0.0001997,"INCLINATION":87.9277,"RA_OF_ASC_NODE":355.4959,"ARG_OF_PERICENTER":95.685,"MEAN_ANOMALY":264.4511,"EPHEMERIS_TYPE":0,"CLASSIFICATION_TYPE":"U","NORAD_CAT_ID":49306,"ELEMENT_SET_NO":999,"REV_AT_EPOCH":19292,"BSTAR":0.00010152,"MEAN_MOTION_DOT":5.4e-7,"MEAN_MOTION_DDOT":0},{"OBJECT_NAME":"ONEWEB-0381","OBJECT_ID":"2021-090AE","EPOCH":"2025-10-06T03:29:58.028928","MEAN_MOTION":13.20772469,"ECCENTRICITY":0.0001943,"INCLINATION":87.9232,"RA_OF_ASC_NODE":325.1016,"ARG_OF_PERICENTER":88.3629,"MEAN_ANOMALY":271.7726,"EPHEMERIS_TYPE":0,"CLASSIFICATION_TYPE":"U","NORAD_CAT_ID":49307,"ELEMENT_SET_NO":999,"REV_AT_EPOCH":19629,"BSTAR":0.00013223,"MEAN_MOTION_DOT":6.7e-7,"MEAN_MOTION_DDOT":0},{"OBJECT_NAME":"ONEWEB-0382","OBJECT_ID":"2021-090AF","EPOCH":"2025-10-06T05:00:50.781312","MEAN_MOTION":13.20773128,"ECCENTRICITY":0.000179,"INCLINATION":87.9236,"RA_OF_ASC_NODE":325.0804,"ARG_OF_PERICENTER":87.5301,"MEAN_ANOMALY":272.6038,"EPHEMERIS_TYPE":0,"CLASSIFICATION_TYPE":"U","NORAD_CAT_ID":49308,"ELEMENT_SET_NO":999,"REV_AT_EPOCH":19629,"BSTAR":0.00011801,"MEAN_MOTION_DOT":6.1e-7,"MEAN_MOTION_DDOT":0},{"OBJECT_NAME":"ONEWEB-0383","OBJECT_ID":"2021-090AG","EPOCH":"2025-10-06T02:27:45.007200","MEAN_MOTION":13.144821,"ECCENTRICITY":0.0001548,"INCLINATION":87.9067,"RA_OF_ASC_NODE":340.2944,"ARG_OF_PERICENTER":95.0813,"MEAN_ANOMALY":265.0493,"EPHEMERIS_TYPE":0,"CLASSIFICATION_TYPE":"U","NORAD_CAT_ID":49309,"ELEMENT_SET_NO":999,"REV_AT_EPOCH":19421,"BSTAR":-0.0055595,"MEAN_MOTION_DOT":-2.047e-5,"MEAN_MOTION_DDOT":0},{"OBJECT_NAME":"ONEWEB-0384","OBJECT_ID":"2021-090AH","EPOCH":"2025-10-06T04:53:13.848000","MEAN_MOTION":13.2079323,"ECCENTRICITY":0.0001619,"INCLINATION":87.9257,"RA_OF_ASC_NODE":325.11,"ARG_OF_PERICENTER":82.3486,"MEAN_ANOMALY":277.7832,"EPHEMERIS_TYPE":0,"CLASSIFICATION_TYPE":"U","NORAD_CAT_ID":49310,"ELEMENT_SET_NO":999,"REV_AT_EPOCH":19630,"BSTAR":-0.00018697,"MEAN_MOTION_DOT":-6.3e-7,"MEAN_MOTION_DDOT":0},{"OBJECT_NAME":"ONEWEB-0385","OBJECT_ID":"2021-090AJ","EPOCH":"2025-10-06T04:49:30.736416","MEAN_MOTION":13.20771303,"ECCENTRICITY":0.0001792,"INCLINATION":87.9234,"RA_OF_ASC_NODE":325.0926,"ARG_OF_PERICENTER":92.0589,"MEAN_ANOMALY":268.075,"EPHEMERIS_TYPE":0,"CLASSIFICATION_TYPE":"U","NORAD_CAT_ID":49311,"ELEMENT_SET_NO":999,"REV_AT_EPOCH":19627,"BSTAR":-0.00016555,"MEAN_MOTION_DOT":-5.4e-7,"MEAN_MOTION_DDOT":0},{"OBJECT_NAME":"ONEWEB-0386","OBJECT_ID":"2021-090AK","EPOCH":"2025-10-06T03:25:23.411712","MEAN_MOTION":13.20774127,"ECCENTRICITY":0.0001739,"INCLINATION":87.9244,"RA_OF_ASC_NODE":325.0821,"ARG_OF_PERICENTER":89.7349,"MEAN_ANOMALY":270.3984,"EPHEMERIS_TYPE":0,"CLASSIFICATION_TYPE":"U","NORAD_CAT_ID":49312,"ELEMENT_SET_NO":999,"REV_AT_EPOCH":19628,"BSTAR":0.00032877,"MEAN_MOTION_DOT":1.47e-6,"MEAN_MOTION_DDOT":0},{"OBJECT_NAME":"ONEWEB-0387","OBJECT_ID":"2021-090AL","EPOCH":"2025-10-06T01:13:34.728096","MEAN_MOTION":13.20773047,"ECCENTRICITY":0.0002071,"INCLINATION":87.9236,"RA_OF_ASC_NODE":325.1518,"ARG_OF_PERICENTER":89.2016,"MEAN_ANOMALY":270.9355,"EPHEMERIS_TYPE":0,"CLASSIFICATION_TYPE":"U","NORAD_CAT_ID":49313,"ELEMENT_SET_NO":999,"REV_AT_EPOCH":19627,"BSTAR":1.44e-7,"MEAN_MOTION_DOT":1.3e-7,"MEAN_MOTION_DDOT":0},{"OBJECT_NAME":"ONEWEB-0388","OBJECT_ID":"2021-090AM","EPOCH":"2025-10-06T04:39:33.294240","MEAN_MOTION":13.19726766,"ECCENTRICITY":0.0001806,"INCLINATION":87.9274,"RA_OF_ASC_NODE":355.5029,"ARG_OF_PERICENTER":96.2529,"MEAN_ANOMALY":263.881,"EPHEMERIS_TYPE":0,"CLASSIFICATION_TYPE":"U","NORAD_CAT_ID":49314,"ELEMENT_SET_NO":999,"REV_AT_EPOCH":19291,"BSTAR":0.00011503,"MEAN_MOTION_DOT":5.9e-7,"MEAN_MOTION_DDOT":0},{"OBJECT_NAME":"ONEWEB-0389","OBJECT_ID":"2021-132A","EPOCH":"2025-10-05T10:23:19.631040","MEAN_MOTION":13.17647507,"ECCENTRICITY":0.0001789,"INCLINATION":87.9088,"RA_OF_ASC_NODE":56.5323,"ARG_OF_PERICENTER":84.6411,"MEAN_ANOMALY":275.4925,"EPHEMERIS_TYPE":0,"CLASSIFICATION_TYPE":"U","NORAD_CAT_ID":50469,"ELEMENT_SET_NO":999,"REV_AT_EPOCH":18453,"BSTAR":-3.8043e-5,"MEAN_MOTION_DOT":-2.0e-8,"MEAN_MOTION_DDOT":0},{"OBJECT_NAME":"ONEWEB-0390","OBJECT_ID":"2021-132B","EPOCH":"2025-10-05T10:25:44.941152","MEAN_MOTION":13.1765075,"ECCENTRICITY":0.0001951,"INCLINATION":87.9085,"RA_OF_ASC_NODE":56.538,"ARG_OF_PERICENTER":99.9672,"MEAN_ANOMALY":260.1679,"EPHEMERIS_TYPE":0,"CLASSIFICATION_TYPE":"U","NORAD_CAT_ID":50470,"ELEMENT_SET_NO":999,"REV_AT_EPOCH":18453,"BSTAR":0.00020309,"MEAN_MOTION_DOT":9.2e-7,"MEAN_MOTION_DDOT":0},{"OBJECT_NAME":"ONEWEB-0391","OBJECT_ID":"2021-132C","EPOCH":"2025-10-06T02:52:20.327808","MEAN_MOTION":13.1764847,"ECCENTRICITY":0.000233,"INCLINATION":87.9083,"RA_OF_ASC_NODE":56.413,"ARG_OF_PERICENTER":79.4968,"MEAN_ANOMALY":280.6426,"EPHEMERIS_TYPE":0,"CLASSIFICATION_TYPE":"U","NORAD_CAT_ID":50471,"ELEMENT_SET_NO":999,"REV_AT_EPOCH":18462,"BSTAR":1.2638e-5,"MEAN_MOTION_DOT":1.8e-7,"MEAN_MOTION_DDOT":0}]
